start=new Date('2023-05-24T00:00:00.000Z').valueOf();
sats=[{"EPOCH":"2023-05-23T21:11:17.865888","ELEMENT_SET_NO":"999","TIME_SYSTEM":"UTC","OBJECT_ID":"2023-056R","INCLINATION":"43.0025","REV_AT_EPOCH":"645","BSTAR":"0.00041994000000","GP_ID":"232408399","MEAN_MOTION_DDOT":"0.0000000000000","RA_OF_ASC_NODE":"3.3607","TLE_LINE2":"2 56301  43.0025   3.3607 0003111 260.4852  99.5649 15.29233072  6454","CENTER_NAME":"EARTH","SITE":"AFETR","APOAPSIS":"480.239","LAUNCH_DATE":"2023-04-19","TLE_LINE1":"1 56301U 23056R   23143.88284567  .00011910  00000-0  41994-3 0  9994","COUNTRY_CODE":"US","RCS_SIZE":"LARGE","OBJECT_TYPE":"PAYLOAD","CLASSIFICATION_TYPE":"U","NORAD_CAT_ID":"56301","PERIOD":"94.165","EPHEMERIS_TYPE":"0","SEMIMAJOR_AXIS":"6856.241","OBJECT_NAME":"STARLINK-30101","PERIAPSIS":"475.973","ECCENTRICITY":"0.00031110","ARG_OF_PERICENTER":"260.4852","MEAN_ANOMALY":"99.5649","DECAY_DATE":null,"MEAN_ELEMENT_THEORY":"SGP4","MEAN_MOTION_DOT":"0.00011910","MEAN_MOTION":"15.29233072","REF_FRAME":"TEME","FILE":"3915766"},{"ECCENTRICITY":"0.00014060","OBJECT_NAME":"STARLINK-30111","PERIAPSIS":"477.186","SEMIMAJOR_AXIS":"6856.285","EPHEMERIS_TYPE":"0","NORAD_CAT_ID":"56302","PERIOD":"94.166","RCS_SIZE":"LARGE","COUNTRY_CODE":"US","OBJECT_TYPE":"PAYLOAD","CLASSIFICATION_TYPE":"U","FILE":"3915766","MEAN_MOTION_DOT":"0.00041409","MEAN_MOTION":"15.29218118","REF_FRAME":"TEME","DECAY_DATE":null,"MEAN_ELEMENT_THEORY":"SGP4","MEAN_ANOMALY":"333.4502","ARG_OF_PERICENTER":"271.3749","MEAN_MOTION_DDOT":"0.0000000000000","BSTAR":"0.00143230000000","GP_ID":"232408341","REV_AT_EPOCH":"130","INCLINATION":"43.0017","OBJECT_ID":"2023-056S","TIME_SYSTEM":"UTC","EPOCH":"2023-05-23T22:00:00.999936","ELEMENT_SET_NO":"999","TLE_LINE1":"1 56302U 23056S   23143.91667824  .00041409  00000-0  14323-2 0  9991","LAUNCH_DATE":"2023-04-19","SITE":"AFETR","APOAPSIS":"479.114","TLE_LINE2":"2 56302  43.0017   1.2899 0001406 271.3749 333.4502 15.29218118  1308","CENTER_NAME":"EARTH","RA_OF_ASC_NODE":"1.2899"},{"LAUNCH_DATE":"2023-04-19","TLE_LINE1":"1 56303U 23056T   23143.91667824 -.00007871  00000-0 -26285-3 0  9990","RA_OF_ASC_NODE":"1.3138","APOAPSIS":"478.955","SITE":"AFETR","CENTER_NAME":"EARTH","TLE_LINE2":"2 56303  43.0016   1.3138 0001287 271.9052 323.0327 15.29243966  1304","GP_ID":"232408456","BSTAR":"-0.00026285000000","MEAN_MOTION_DDOT":"0.0000000000000","TIME_SYSTEM":"UTC","ELEMENT_SET_NO":"999","EPOCH":"2023-05-23T22:00:00.999936","OBJECT_ID":"2023-056T","INCLINATION":"43.0016","REV_AT_EPOCH":"130","MEAN_MOTION_DOT":"-0.00007871","REF_FRAME":"TEME","MEAN_MOTION":"15.29243966","DECAY_DATE":null,"MEAN_ELEMENT_THEORY":"SGP4","FILE":"3915766","ARG_OF_PERICENTER":"271.9052","MEAN_ANOMALY":"323.0327","SEMIMAJOR_AXIS":"6856.208","ECCENTRICITY":"0.00012870","PERIAPSIS":"477.191","OBJECT_NAME":"STARLINK-30097","CLASSIFICATION_TYPE":"U","COUNTRY_CODE":"US","RCS_SIZE":"LARGE","OBJECT_TYPE":"PAYLOAD","EPHEMERIS_TYPE":"0","PERIOD":"94.164","NORAD_CAT_ID":"56303"},{"LAUNCH_DATE":"2023-04-19","TLE_LINE1":"1 56304U 23056U   23143.91667824 -.00740838  00000-0 -23242-1 0  9996","RA_OF_ASC_NODE":"0.6151","TLE_LINE2":"2 56304  43.0030   0.6151 0001337 268.0781 257.0108 15.34931865  1301","CENTER_NAME":"EARTH","SITE":"AFETR","APOAPSIS":"462.039","BSTAR":"-0.02324200000000","GP_ID":"232408282","MEAN_MOTION_DDOT":"0.0000000000000","EPOCH":"2023-05-23T22:00:00.999936","ELEMENT_SET_NO":"999","TIME_SYSTEM":"UTC","INCLINATION":"43.0030","REV_AT_EPOCH":"130","OBJECT_ID":"2023-056U","DECAY_DATE":null,"MEAN_ELEMENT_THEORY":"SGP4","MEAN_MOTION_DOT":"-0.00740838","MEAN_MOTION":"15.34931865","REF_FRAME":"TEME","FILE":"3915766","ARG_OF_PERICENTER":"268.0781","MEAN_ANOMALY":"257.0108","SEMIMAJOR_AXIS":"6839.260","OBJECT_NAME":"STARLINK-30099","PERIAPSIS":"460.210","ECCENTRICITY":"0.00013370","COUNTRY_CODE":"US","OBJECT_TYPE":"PAYLOAD","RCS_SIZE":"LARGE","CLASSIFICATION_TYPE":"U","NORAD_CAT_ID":"56304","PERIOD":"93.815","EPHEMERIS_TYPE":"0"},{"FILE":"3915766","DECAY_DATE":null,"MEAN_ELEMENT_THEORY":"SGP4","MEAN_MOTION":"15.29198214","MEAN_MOTION_DOT":"0.00000428","REF_FRAME":"TEME","MEAN_ANOMALY":"359.9937","ARG_OF_PERICENTER":"265.3049","OBJECT_NAME":"STARLINK-30094","PERIAPSIS":"477.375","ECCENTRICITY":"0.00012180","SEMIMAJOR_AXIS":"6856.345","NORAD_CAT_ID":"56305","PERIOD":"94.167","EPHEMERIS_TYPE":"0","RCS_SIZE":"LARGE","COUNTRY_CODE":"US","OBJECT_TYPE":"PAYLOAD","CLASSIFICATION_TYPE":"U","TLE_LINE1":"1 56305U 23056V   23143.91667824  .00000428  00000-0  24023-4 0  9990","LAUNCH_DATE":"2023-04-19","TLE_LINE2":"2 56305  43.0028   1.2399 0001218 265.3049 359.9937 15.29198214  1304","CENTER_NAME":"EARTH","APOAPSIS":"479.045","SITE":"AFETR","RA_OF_ASC_NODE":"1.2399","MEAN_MOTION_DDOT":"0.0000000000000","BSTAR":"0.00002402300000","GP_ID":"232408634","INCLINATION":"43.0028","OBJECT_ID":"2023-056V","REV_AT_EPOCH":"130","EPOCH":"2023-05-23T22:00:00.999936","ELEMENT_SET_NO":"999","TIME_SYSTEM":"UTC"},{"DECAY_DATE":null,"MEAN_ELEMENT_THEORY":"SGP4","MEAN_MOTION_DOT":"0.00019078","MEAN_MOTION":"15.29245386","REF_FRAME":"TEME","FILE":"3915766","ARG_OF_PERICENTER":"272.0823","MEAN_ANOMALY":"342.8125","SEMIMAJOR_AXIS":"6856.204","PERIAPSIS":"477.040","OBJECT_NAME":"STARLINK-30112","ECCENTRICITY":"0.00015000","CLASSIFICATION_TYPE":"U","RCS_SIZE":"LARGE","COUNTRY_CODE":"US","OBJECT_TYPE":"PAYLOAD","NORAD_CAT_ID":"56306","PERIOD":"94.164","EPHEMERIS_TYPE":"0","LAUNCH_DATE":"2023-04-19","TLE_LINE1":"1 56306U 23056W   23143.91667824  .00019078  00000-0  66628-3 0  9998","RA_OF_ASC_NODE":"1.2651","CENTER_NAME":"EARTH","TLE_LINE2":"2 56306  43.0019   1.2651 0001500 272.0823 342.8125 15.29245386  1308","SITE":"AFETR","APOAPSIS":"479.097","GP_ID":"232408575","BSTAR":"0.00066628000000","MEAN_MOTION_DDOT":"0.0000000000000","ELEMENT_SET_NO":"999","EPOCH":"2023-05-23T22:00:00.999936","TIME_SYSTEM":"UTC","REV_AT_EPOCH":"130","OBJECT_ID":"2023-056W","INCLINATION":"43.0019"},{"CLASSIFICATION_TYPE":"U","COUNTRY_CODE":"US","RCS_SIZE":"LARGE","OBJECT_TYPE":"PAYLOAD","EPHEMERIS_TYPE":"0","PERIOD":"93.264","NORAD_CAT_ID":"56317","SEMIMAJOR_AXIS":"6812.455","ECCENTRICITY":"0.00017350","PERIAPSIS":"433.138","OBJECT_NAME":"STARLINK-6038","ARG_OF_PERICENTER":"95.4505","MEAN_ANOMALY":"133.1140","REF_FRAME":"TEME","MEAN_MOTION_DOT":"-0.00883263","MEAN_MOTION":"15.44000111","DECAY_DATE":null,"MEAN_ELEMENT_THEORY":"SGP4","FILE":"3915766","TIME_SYSTEM":"UTC","ELEMENT_SET_NO":"999","EPOCH":"2023-05-23T22:00:00.999936","REV_AT_EPOCH":"130","OBJECT_ID":"2023-058A","INCLINATION":"97.6557","GP_ID":"232408518","BSTAR":"-0.02104400000000","MEAN_MOTION_DDOT":"0.0000000000000","RA_OF_ASC_NODE":"144.5452","SITE":"AFWTR","APOAPSIS":"435.502","CENTER_NAME":"EARTH","TLE_LINE2":"2 56317  97.6557 144.5452 0001735  95.4505 133.1140 15.44000111  1306","LAUNCH_DATE":"2023-04-27","TLE_LINE1":"1 56317U 23058A   23143.91667824 -.00883263  00000-0 -21044-1 0  9990"},{"CLASSIFICATION_TYPE":"U","COUNTRY_CODE":"US","RCS_SIZE":"LARGE","OBJECT_TYPE":"PAYLOAD","EPHEMERIS_TYPE":"0","PERIOD":"93.250","NORAD_CAT_ID":"56318","SEMIMAJOR_AXIS":"6811.763","ECCENTRICITY":"0.00017580","PERIAPSIS":"432.431","OBJECT_NAME":"STARLINK-5954","ARG_OF_PERICENTER":"94.3518","MEAN_ANOMALY":"136.6948","MEAN_MOTION_DOT":"-0.00883281","REF_FRAME":"TEME","MEAN_MOTION":"15.44235269","DECAY_DATE":null,"MEAN_ELEMENT_THEORY":"SGP4","FILE":"3915766","TIME_SYSTEM":"UTC","ELEMENT_SET_NO":"999","EPOCH":"2023-05-23T22:00:00.999936","REV_AT_EPOCH":"130","OBJECT_ID":"2023-058B","INCLINATION":"97.6558","GP_ID":"232408401","BSTAR":"-0.02087700000000","MEAN_MOTION_DDOT":"0.0000000000000","RA_OF_ASC_NODE":"144.5462","SITE":"AFWTR","APOAPSIS":"434.826","CENTER_NAME":"EARTH","TLE_LINE2":"2 56318  97.6558 144.5462 0001758  94.3518 136.6948 15.44235269  1304","LAUNCH_DATE":"2023-04-27","TLE_LINE1":"1 56318U 23058B   23143.91667824 -.00883281  00000-0 -20877-1 0  9994"},{"SITE":"AFWTR","APOAPSIS":"431.054","CENTER_NAME":"EARTH","TLE_LINE2":"2 56319  97.6555 144.5709 0000916  96.2788 263.8565 15.45323266  4588","RA_OF_ASC_NODE":"144.5709","TLE_LINE1":"1 56319U 23058C   23143.93958180 -.00348868  00000-0 -76593-2 0  9999","LAUNCH_DATE":"2023-04-27","OBJECT_ID":"2023-058C","INCLINATION":"97.6555","REV_AT_EPOCH":"458","TIME_SYSTEM":"UTC","ELEMENT_SET_NO":"999","EPOCH":"2023-05-23T22:32:59.867520","MEAN_MOTION_DDOT":"0.0000000000000","GP_ID":"232408343","BSTAR":"-0.00765930000000","MEAN_ANOMALY":"263.8565","ARG_OF_PERICENTER":"96.2788","FILE":"3915766","MEAN_MOTION_DOT":"-0.00348868","REF_FRAME":"TEME","MEAN_MOTION":"15.45323266","DECAY_DATE":null,"MEAN_ELEMENT_THEORY":"SGP4","EPHEMERIS_TYPE":"0","PERIOD":"93.184","NORAD_CAT_ID":"56319","CLASSIFICATION_TYPE":"U","COUNTRY_CODE":"US","OBJECT_TYPE":"PAYLOAD","RCS_SIZE":"LARGE","ECCENTRICITY":"0.00009160","PERIAPSIS":"429.807","OBJECT_NAME":"STARLINK-6039","SEMIMAJOR_AXIS":"6808.565"},{"MEAN_MOTION":"15.45426445","MEAN_MOTION_DOT":"-0.00361331","REF_FRAME":"TEME","DECAY_DATE":null,"MEAN_ELEMENT_THEORY":"SGP4","FILE":"3915766","ARG_OF_PERICENTER":"101.6102","MEAN_ANOMALY":"258.5397","SEMIMAJOR_AXIS":"6808.262","ECCENTRICITY":"0.00022310","PERIAPSIS":"428.608","OBJECT_NAME":"STARLINK-5988","CLASSIFICATION_TYPE":"U","RCS_SIZE":"LARGE","COUNTRY_CODE":"US","OBJECT_TYPE":"PAYLOAD","EPHEMERIS_TYPE":"0","PERIOD":"93.178","NORAD_CAT_ID":"56320","LAUNCH_DATE":"2023-04-27","TLE_LINE1":"1 56320U 23058D   23143.74547460 -.00361331  00000-0 -79159-2 0  9996","RA_OF_ASC_NODE":"144.3675","SITE":"AFWTR","APOAPSIS":"431.646","CENTER_NAME":"EARTH","TLE_LINE2":"2 56320  97.6557 144.3675 0002231 101.6102 258.5397 15.45426445  4560","GP_ID":"232408458","BSTAR":"-0.00791590000000","MEAN_MOTION_DDOT":"0.0000000000000","TIME_SYSTEM":"UTC","ELEMENT_SET_NO":"999","EPOCH":"2023-05-23T17:53:29.005440","INCLINATION":"97.6557","REV_AT_EPOCH":"456","OBJECT_ID":"2023-058D"}];
